BEIDOU 3 (C01)          
1 36287U 10001A   22051.57738793 -.00000277  00000+0  00000+0 0  9992
2 36287   1.8786  47.7608 0002302  11.8719  79.0820  1.00273349 44344
BEIDOU 5 (C06)          
1 36828U 10036A   22050.89250057 -.00000125  00000+0  00000+0 0  9999
2 36828  54.1931 177.3058 0027545 180.5884 221.6453  1.00280437 42408
BEIDOU 6 (C04)          
1 37210U 10057A   22051.21769448 -.00000108  00000+0  00000+0 0  9995
2 37210   0.9558  53.6650 0004398 161.2980 173.5873  1.00272329 41463
BEIDOU 7 (C07)          
1 37256U 10068A   22050.93165009 -.00000169  00000+0  00000+0 0  9995
2 37256  50.4199 291.0518 0017591 186.9525 115.1304  1.00287113 40965
BEIDOU 8 (C08)          
1 37384U 11013A   22051.50828449 -.00000153  00000+0  00000+0 0  9999
2 37384  60.1292  55.4152 0020099 195.3396 190.7475  1.00286783 39858
BEIDOU 9 (C09)          
1 37763U 11038A   22050.82223171 -.00000069  00000+0  00000+0 0  9998
2 37763  54.4760 179.7841 0088862 225.3896 134.3456  1.00259112 38826
BEIDOU 10 (C10)         
1 37948U 11073A   22050.92799350 -.00000123  00000+0  00000+0 0  9991
2 37948  50.5343 290.6864 0077065 218.5700  70.4730  1.00279549 37576
BEIDOU 11 (C05)         
1 38091U 12008A   22050.91292345  .00000060  00000+0  00000+0 0  9990
2 38091   2.1025  72.1384 0008477 284.8845 180.1470  1.00273259 36653
BEIDOU 12 (C11)         
1 38250U 12018A   22051.16765093 -.00000072  00000+0  00000+0 0  9995
2 38250  56.7217 357.4335 0023611 256.9526 158.6615  1.86234375 66908
BEIDOU 13 (C12)         
1 38251U 12018B   22051.16360324 -.00000072  00000+0  00000+0 0  9994
2 38251  56.6418 356.7656 0014464 263.3615 193.8095  1.86234334 66904
BEIDOU 15 (C14)         
1 38775U 12050B   22050.89167269  .00000018  00000+0  00000+0 0  9992
2 38775  55.3331 115.6429 0013342 319.3061 152.2825  1.86231224 64279
BEIDOU 16 (C02)         
1 38953U 12059A   22051.10535703 -.00000171  00000+0  00000+0 0  9997
2 38953   1.6973  84.6417 0013223 284.0463 263.2248  1.00269149 34224
BEIDOU 17 (C31)         
1 40549U 15019A   22050.99701881 -.00000158  00000+0  00000+0 0  9993
2 40549  52.0850 314.1195 0035327 190.3221 100.1658  1.00267403 25254
BEIDOU 18 (C57)         
1 40748U 15037A   22050.38850994 -.00000073  00000+0  00000+0 0  9993
2 40748  55.8987 355.7297 0005048 349.2330 217.8767  1.86233251 44711
BEIDOU 19 (C58)         
1 40749U 15037B   22050.76837256 -.00000073  00000+0  00000+0 0  9992
2 40749  55.9014 355.7056 0007013 320.3228 276.4722  1.86232166 44713
BEIDOU 20 (C18)         
1 40938U 15053A   22050.85669735 -.00000096  00000+0  00000+0 0  9990
2 40938  51.6807 277.2228 0042994 193.1809  84.0480  1.00272788 23523
BEIDOU IGSO-6 (C13)     
1 41434U 16021A   22051.06765926 -.00000121  00000+0  00000+0 0  9990
2 41434  57.9280  54.0481 0044363 219.1191 355.9616  1.00264784 21656
BEIDOU-2 G7 (C03)       
1 41586U 16037A   22050.87452921 -.00000351  00000+0  00000+0 0  9996
2 41586   1.7146  67.8061 0008422 358.6266 148.6712  1.00276138 20969
BEIDOU-3 M1 (C19)       
1 43001U 17069A   22050.68819025  .00000019  00000+0  00000+0 0  9997
2 43001  55.4867 115.6344 0010183 284.6850 206.6499  1.86231589 29207
BEIDOU-3 M2 (C20)       
1 43002U 17069B   22050.43785286  .00000020  00000+0  00000+0 0  9994
2 43002  55.4847 115.6798 0008204 305.5905  61.0721  1.86231374 29195
BEIDOU-3 M3 (C27)       
1 43107U 18003A   22050.43703686 -.00000074  00000+0  00000+0 0  9993
2 43107  55.3467 356.6972 0004608  36.1006 136.0260  1.86232430 27959
BEIDOU-3 M4 (C28)       
1 43108U 18003B   22051.00172097 -.00000074  00000+0  00000+0 0  9994
2 43108  55.3395 356.6676 0003696 271.2462 324.0279  1.86231120 27960
BEIDOU-3 M5 (C21)       
1 43207U 18018A   22050.56009204  .00000020  00000+0  00000+0 0  9999
2 43207  55.4435 115.7572 0005767 324.1392  35.9022  1.86231709 27345
BEIDOU-3 M6 (C22)       
1 43208U 18018B   22050.62675666  .00000019  00000+0  00000+0 0  9996
2 43208  55.4445 115.7594 0008342 294.7082  65.2853  1.86231711 27342
BEIDOU-3 M7 (C29)       
1 43245U 18029A   22050.72495313 -.00000074  00000+0  00000+0 0  9991
2 43245  55.2661 354.4643 0001456 320.0796 315.4295  1.86232493 26495
BEIDOU-3 M8 (C30)       
1 43246U 18029B   22051.13146352 -.00000074  00000+0  10000-3 0  9999
2 43246  55.2635 354.4815 0005144 346.2386 248.2554  1.86232742 26499
BEIDOU IGSO-7 (C16)     
1 43539U 18057A   22048.55755538 -.00000137  00000+0  00000+0 0  9994
2 43539  55.0726 176.7644 0041769 221.1886  59.4877  1.00246636 13306
BEIDOU-3 M9 (C23)       
1 43581U 18062A   22050.78269287  .00000075  00000+0  00000+0 0  9996
2 43581  54.3136 236.1134 0002063 328.0621 243.2823  1.86232007 24232
BEIDOU-3 M10 (C24)      
1 43582U 18062B   22051.17972392  .00000077  00000+0  00000+0 0  9991
2 43582  54.3123 236.0899 0006845  22.1647 187.0507  1.86232229 24249
BEIDOU-3 M11 (C25)      
1 43602U 18067A   22050.76351492  .00000075  00000+0  00000+0 0  9993
2 43602  54.3945 234.7087 0007983  14.8320 316.9376  1.86231662 23727
BEIDOU-3 M12 (C26)      
1 43603U 18067B   22050.85598824  .00000076  00000+0  00000+0 0  9997
2 43603  54.3895 234.6715 0004836  10.9314 293.2405  1.86231698 23744
BEIDOU-3 M13 (C32)      
1 43622U 18072A   22050.85190441  .00000018  00000+0  00000+0 0  9993
2 43622  55.4111 115.3065 0007164 278.4923  52.5723  1.86231429 23252
BEIDOU-3 M14 (C33)      
1 43623U 18072B   22050.88772475  .00000018  00000+0  00000+0 0  9990
2 43623  55.4132 115.2974 0004718 299.4056 145.9091  1.86231430 23264
BEIDOU-3 M15 (C34)      
1 43647U 18078A   22051.16855278 -.00000074  00000+0  10000-3 0  9995
2 43647  55.1603 354.6185 0007543 354.6585 174.3478  1.86232996 22771
BEIDOU-3 M16 (C35)      
1 43648U 18078B   22050.86138976 -.00000074  00000+0  00000+0 0  9996
2 43648  55.1573 354.6349 0005292 359.8072 231.2657  1.86232210 22789
BEIDOU-3 G1 (C59)       
1 43683U 18085A   22050.99023229 -.00000275  00000+0  00000+0 0  9994
2 43683   0.8391 187.4407 0001537   0.5099  98.4692  1.00273585 12223
BEIDOU-3 M17 (C36)      
1 43706U 18093A   22050.66886337  .00000074  00000+0  00000+0 0  9996
2 43706  54.3958 235.9934 0007207 284.4206  75.4918  1.86231781 22121
BEIDOU-3 M18 (C37)      
1 43707U 18093B   22050.24810691  .00000072  00000+0  00000+0 0  9999
2 43707  54.3956 235.9997 0006977 320.6998 208.2171  1.86232160 22122
BEIDOU-3 IGSO-1 (C38)   
1 44204U 19023A   22050.91924588 -.00000186  00000+0  00000+0 0  9998
2 44204  56.3834  54.2294 0021121 205.4604 338.6088  1.00294060 10536
BEIDOU-2 G8             
1 44231U 19027A   22051.45049412 -.00000245  00000+0  00000+0 0  9992
2 44231   0.5886  68.8143 0005516 146.0057 242.1685  1.00267759 10256
BEIDOU-3 IGSO-2 (C39)   
1 44337U 19035A   22051.52962502 -.00000131  00000+0  00000+0 0  9994
2 44337  55.1140 172.7718 0022265 188.9479  97.2671  1.00289055  9871
BEIDOU-3 M23 (C45)      
1 44542U 19061A   22051.14120023  .00000078  00000+0  00000+0 0  9992
2 44542  54.6216 236.0959 0008377 354.2323   5.7500  1.86231264 16407
BEIDOU-3 M24 (C46)      
1 44543U 19061B   22051.19546500  .00000078  00000+0  00000+0 0  9990
2 44543  54.6178 236.0642 0005568 353.8794 313.6342  1.86231782 16398
BEIDOU-3 IGSO-3         
1 44709U 19073A   22050.93225198 -.00000154  00000+0  00000+0 0  9991
2 44709  57.4511 297.6037 0019813 174.4324 131.4611  1.00291697  8628
BEIDOU-3 M21            
1 44793U 19078A   22051.26088770 -.00000075  00000+0  10000-3 0  9996
2 44793  55.0092 354.6514 0007216 359.4542 185.5382  1.86232192 15266
BEIDOU-3 M22            
1 44794U 19078B   22050.87373286 -.00000074  00000+0  00000+0 0  9996
2 44794  54.9845 354.6582 0005276 355.1834 201.6768  1.86232684 15250
BEIDOU-3 M19            
1 44864U 19090A   22050.82527116  .00000018  00000+0  00000+0 0  9993
2 44864  55.3457 115.5250 0017484 266.5673  92.3241  1.86231774 14831
BEIDOU-3 M20            
1 44865U 19090B   22051.18177112  .00000016  00000+0  00000+0 0  9999
2 44865  55.3470 115.5447 0015608 280.1690  47.6258  1.86231724 14816
BEIDOU-3 G2             
1 45344U 20017A   22050.83196956 -.00000137  00000+0  00000+0 0  9996
2 45344   2.1560 346.3868 0002067  56.4835 126.3973  1.00270755  7432
BEIDOU-3 G3             
1 45807U 20040A   22048.95118867 -.00000351  00000+0  00000+0 0  9999
2 45807   1.7149 300.4883 0008463 351.1666 309.0346  1.00265467  6230
